[{"OBJECT_NAME":"FLOCK 4G-6","OBJECT_ID":"2025-009BD","EPOCH":"2026-03-09T17:03:16.973568","MEAN_MOTION":15.27432125,"ECCENTRICITY":0.00023795,"INCLINATION":97.398,"RA_OF_ASC_NODE":150.7943,"ARG_OF_PERICENTER":348.2637,"MEAN_ANOMALY":11.8546,"EPHEMERIS_TYPE":0,"CLASSIFICATION_TYPE":"U","NORAD_CAT_ID":62660,"ELEMENT_SET_NO":999,"REV_AT_EPOCH":12130,"BSTAR":0.00045909501,"MEAN_MOTION_DOT":0.00012261,"MEAN_MOTION_DDOT":0},{"OBJECT_NAME":"STARLINK-34018","OBJECT_ID":"2025-093A","EPOCH":"2026-03-09T10:44:08.995776","MEAN_MOTION":15.275551,"ECCENTRICITY":0.00022877,"INCLINATION":43.0028,"RA_OF_ASC_NODE":79.3993,"ARG_OF_PERICENTER":280.0045,"MEAN_ANOMALY":80.0548,"EPHEMERIS_TYPE":0,"CLASSIFICATION_TYPE":"U","NORAD_CAT_ID":63836,"ELEMENT_SET_NO":999,"REV_AT_EPOCH":4793,"BSTAR":0.0012625987,"MEAN_MOTION_DOT":0.0003462,"MEAN_MOTION_DDOT":0}]
